TDRS 3                  
1 19548U 88091B   26063.88989582 -.00000306  00000+0  00000+0 0  9995
2 19548  12.6802 341.6894 0044240 353.1115  98.6562  1.00260111124348
HST                     
1 20580U 90037B   26063.13533952  .00010319  00000+0  34382-3 0  9998
2 20580  28.4703  77.8870 0001724  70.3509 289.7272 15.29378725772468
TDRS 5                  
1 21639U 91054B   26063.58537697  .00000078  00000+0  00000+0 0  9990
2 21639  14.0840 354.5521 0010786 277.7780 293.2017  1.00266567126663
TDRS 6                  
1 22314U 93003B   26063.27498017 -.00000302  00000+0  00000+0 0  9996
2 22314  14.1807 357.8358 0005560 200.8977  16.3102  1.00278796121358
TDRS 7                  
1 23613U 95035B   26063.62083492 -.00000245  00000+0  00000+0 0  9998
2 23613  13.4204 348.9070 0008188  47.4770  78.5013  1.00276443112203
ISS (ZARYA)             
1 25544U 98067A   26063.86671769  .00009014  00000+0  17477-3 0  9999
2 25544  51.6315  96.2009 0008177 157.5272 202.6076 15.48447334555585
TERRA                   
1 25994U 99068A   26063.78487468  .00000631  00000+0  13779-3 0  9999
2 25994  97.9602 117.4068 0002392 163.1129 261.5498 14.61008869394363
TDRS 8                  
1 26388U 00034A   26063.51583743 -.00000202  00000+0  00000+0 0  9990
2 26388  12.5191  32.1945 0006143 308.0244  92.5075  1.00276485 94135
TIMED                   
1 26998U 01055B   26063.49332215  .00001962  00000+0  18293-3 0  9994
2 26998  74.0660  85.7795 0002976 281.4853  78.5997 14.95004039315172
AQUA                    
1 27424U 02022A   26063.88715911  .00001506  00000+0  31040-3 0  9994
2 27424  98.4167  31.1649 0000622  61.1247 325.7482 14.61963487268030
SORCE                   
1 27651U 03004A   26063.58311661  .00004757  00000+0  35679-3 0  9991
2 27651  39.9904 138.2071 0016533  16.5443 343.5888 15.03051755256150
AURA                    
1 28376U 04026A   26063.83492546  .00001499  00000+0  31456-3 0  9990
2 28376  98.3304  19.5064 0001025  79.2780 280.8535 14.61135714150977
SWIFT                   
1 28485U 04047A   26063.81034094  .00051743  00000+0  62838-3 0  9997
2 28485  20.5530 264.3196 0003010 328.0260  32.0001 15.58801779170500
THEMIS A                
1 30580U 07004A   26062.98788683 -.00000163  00000+0 -45938-2 0  9992
2 30580   6.7286 120.3478 8405788 177.2020 197.4062  0.87846778 40357
THEMIS D                
1 30797U 07004D   26063.76027642 -.00000246  00000+0  00000+0 0  9999
2 30797   6.6064  84.7113 8358431 215.7397  68.9811  0.87836012 40169
THEMIS E                
1 30798U 07004E   26063.59587265 -.00000236  00000+0  00000+0 0  9992
2 30798   4.1250  99.8952 8362422 201.4853  31.3825  0.87837694 64995
FGRST (GLAST)           
1 33053U 08029A   26063.70461148  .00005215  00000+0  19977-3 0  9999
2 33053  25.5812 209.6235 0008405 169.3273 190.7444 15.23284440979887
