[{"OBJECT_NAME":"TDRS 3","OBJECT_ID":"1988-091B","EPOCH":"2026-03-04T21:21:26.998848","MEAN_MOTION":1.00260111,"ECCENTRICITY":0.004424,"INCLINATION":12.6802,"RA_OF_ASC_NODE":341.6894,"ARG_OF_PERICENTER":353.1115,"MEAN_ANOMALY":98.6562,"EPHEMERIS_TYPE":0,"CLASSIFICATION_TYPE":"U","NORAD_CAT_ID":19548,"ELEMENT_SET_NO":999,"REV_AT_EPOCH":12434,"BSTAR":0,"MEAN_MOTION_DOT":-3.06e-6,"MEAN_MOTION_DDOT":0},{"OBJECT_NAME":"HST","OBJECT_ID":"1990-037B","EPOCH":"2026-03-04T03:14:53.334528","MEAN_MOTION":15.29378725,"ECCENTRICITY":0.00017249,"INCLINATION":28.4703,"RA_OF_ASC_NODE":77.887,"ARG_OF_PERICENTER":70.3509,"MEAN_ANOMALY":289.7272,"EPHEMERIS_TYPE":0,"CLASSIFICATION_TYPE":"U","NORAD_CAT_ID":20580,"ELEMENT_SET_NO":999,"REV_AT_EPOCH":77246,"BSTAR":0.0003438249,"MEAN_MOTION_DOT":0.00010319,"MEAN_MOTION_DDOT":0},{"OBJECT_NAME":"TDRS 5","OBJECT_ID":"1991-054B","EPOCH":"2026-03-04T14:02:56.570208","MEAN_MOTION":1.00266567,"ECCENTRICITY":0.0010786,"INCLINATION":14.084,"RA_OF_ASC_NODE":354.5521,"ARG_OF_PERICENTER":277.778,"MEAN_ANOMALY":293.2017,"EPHEMERIS_TYPE":0,"CLASSIFICATION_TYPE":"U","NORAD_CAT_ID":21639,"ELEMENT_SET_NO":999,"REV_AT_EPOCH":12666,"BSTAR":0,"MEAN_MOTION_DOT":7.8e-7,"MEAN_MOTION_DDOT":0},{"OBJECT_NAME":"TDRS 6","OBJECT_ID":"1993-003B","EPOCH":"2026-03-04T06:35:58.286688","MEAN_MOTION":1.00278796,"ECCENTRICITY":0.00055602,"INCLINATION":14.1807,"RA_OF_ASC_NODE":357.8358,"ARG_OF_PERICENTER":200.8977,"MEAN_ANOMALY":16.3102,"EPHEMERIS_TYPE":0,"CLASSIFICATION_TYPE":"U","NORAD_CAT_ID":22314,"ELEMENT_SET_NO":999,"REV_AT_EPOCH":12135,"BSTAR":0,"MEAN_MOTION_DOT":-3.02e-6,"MEAN_MOTION_DDOT":0},{"OBJECT_NAME":"TDRS 7","OBJECT_ID":"1995-035B","EPOCH":"2026-03-04T14:54:00.137088","MEAN_MOTION":1.00276443,"ECCENTRICITY":0.0008188,"INCLINATION":13.4204,"RA_OF_ASC_NODE":348.907,"ARG_OF_PERICENTER":47.477,"MEAN_ANOMALY":78.5013,"EPHEMERIS_TYPE":0,"CLASSIFICATION_TYPE":"U","NORAD_CAT_ID":23613,"ELEMENT_SET_NO":999,"REV_AT_EPOCH":11220,"BSTAR":0,"MEAN_MOTION_DOT":-2.45e-6,"MEAN_MOTION_DDOT":0},{"OBJECT_NAME":"ISS (ZARYA)","OBJECT_ID":"1998-067A","EPOCH":"2026-03-04T20:48:04.408416","MEAN_MOTION":15.48447334,"ECCENTRICITY":0.0008177,"INCLINATION":51.6315,"RA_OF_ASC_NODE":96.2009,"ARG_OF_PERICENTER":157.5272,"MEAN_ANOMALY":202.6076,"EPHEMERIS_TYPE":0,"CLASSIFICATION_TYPE":"U","NORAD_CAT_ID":25544,"ELEMENT_SET_NO":999,"REV_AT_EPOCH":55558,"BSTAR":0.00017477,"MEAN_MOTION_DOT":9.014e-5,"MEAN_MOTION_DDOT":0},{"OBJECT_NAME":"TERRA","OBJECT_ID":"1999-068A","EPOCH":"2026-03-04T18:50:13.172352","MEAN_MOTION":14.61008869,"ECCENTRICITY":0.0002392,"INCLINATION":97.9602,"RA_OF_ASC_NODE":117.4068,"ARG_OF_PERICENTER":163.1129,"MEAN_ANOMALY":261.5498,"EPHEMERIS_TYPE":0,"CLASSIFICATION_TYPE":"U","NORAD_CAT_ID":25994,"ELEMENT_SET_NO":999,"REV_AT_EPOCH":39436,"BSTAR":0.00013779,"MEAN_MOTION_DOT":6.31e-6,"MEAN_MOTION_DDOT":0},{"OBJECT_NAME":"TDRS 8","OBJECT_ID":"2000-034A","EPOCH":"2026-03-04T12:22:48.353952","MEAN_MOTION":1.00276485,"ECCENTRICITY":0.00061439,"INCLINATION":12.5191,"RA_OF_ASC_NODE":32.1945,"ARG_OF_PERICENTER":308.0244,"MEAN_ANOMALY":92.5075,"EPHEMERIS_TYPE":0,"CLASSIFICATION_TYPE":"U","NORAD_CAT_ID":26388,"ELEMENT_SET_NO":999,"REV_AT_EPOCH":9413,"BSTAR":0,"MEAN_MOTION_DOT":-2.02e-6,"MEAN_MOTION_DDOT":0},{"OBJECT_NAME":"TIMED","OBJECT_ID":"2001-055B","EPOCH":"2026-03-04T11:50:23.033760","MEAN_MOTION":14.95004039,"ECCENTRICITY":0.00029766,"INCLINATION":74.066,"RA_OF_ASC_NODE":85.7795,"ARG_OF_PERICENTER":281.4853,"MEAN_ANOMALY":78.5997,"EPHEMERIS_TYPE":0,"CLASSIFICATION_TYPE":"U","NORAD_CAT_ID":26998,"ELEMENT_SET_NO":999,"REV_AT_EPOCH":31517,"BSTAR":0.00018293277,"MEAN_MOTION_DOT":1.962e-5,"MEAN_MOTION_DDOT":0},{"OBJECT_NAME":"AQUA","OBJECT_ID":"2002-022A","EPOCH":"2026-03-04T21:17:30.547104","MEAN_MOTION":14.61963487,"ECCENTRICITY":6.22e-5,"INCLINATION":98.4167,"RA_OF_ASC_NODE":31.1649,"ARG_OF_PERICENTER":61.1247,"MEAN_ANOMALY":325.7482,"EPHEMERIS_TYPE":0,"CLASSIFICATION_TYPE":"U","NORAD_CAT_ID":27424,"ELEMENT_SET_NO":999,"REV_AT_EPOCH":26803,"BSTAR":0.0003104,"MEAN_MOTION_DOT":1.506e-5,"MEAN_MOTION_DDOT":0},{"OBJECT_NAME":"SORCE","OBJECT_ID":"2003-004A","EPOCH":"2026-03-04T13:59:41.275104","MEAN_MOTION":15.03051755,"ECCENTRICITY":0.0016533,"INCLINATION":39.9904,"RA_OF_ASC_NODE":138.2071,"ARG_OF_PERICENTER":16.5443,"MEAN_ANOMALY":343.5888,"EPHEMERIS_TYPE":0,"CLASSIFICATION_TYPE":"U","NORAD_CAT_ID":27651,"ELEMENT_SET_NO":999,"REV_AT_EPOCH":25615,"BSTAR":0.00035679,"MEAN_MOTION_DOT":4.757e-5,"MEAN_MOTION_DDOT":0},{"OBJECT_NAME":"AURA","OBJECT_ID":"2004-026A","EPOCH":"2026-03-04T20:02:17.559744","MEAN_MOTION":14.61135714,"ECCENTRICITY":0.0001025,"INCLINATION":98.3304,"RA_OF_ASC_NODE":19.5064,"ARG_OF_PERICENTER":79.278,"MEAN_ANOMALY":280.8535,"EPHEMERIS_TYPE":0,"CLASSIFICATION_TYPE":"U","NORAD_CAT_ID":28376,"ELEMENT_SET_NO":999,"REV_AT_EPOCH":15097,"BSTAR":0.00031456,"MEAN_MOTION_DOT":1.499e-5,"MEAN_MOTION_DDOT":0},{"OBJECT_NAME":"SWIFT","OBJECT_ID":"2004-047A","EPOCH":"2026-03-04T19:26:53.457216","MEAN_MOTION":15.58801779,"ECCENTRICITY":0.000301,"INCLINATION":20.553,"RA_OF_ASC_NODE":264.3196,"ARG_OF_PERICENTER":328.026,"MEAN_ANOMALY":32.0001,"EPHEMERIS_TYPE":0,"CLASSIFICATION_TYPE":"U","NORAD_CAT_ID":28485,"ELEMENT_SET_NO":999,"REV_AT_EPOCH":17050,"BSTAR":0.00062838,"MEAN_MOTION_DOT":0.00051743,"MEAN_MOTION_DDOT":0},{"OBJECT_NAME":"THEMIS A","OBJECT_ID":"2007-004A","EPOCH":"2026-03-03T23:42:33.422112","MEAN_MOTION":0.87846778,"ECCENTRICITY":0.8405788,"INCLINATION":6.7286,"RA_OF_ASC_NODE":120.3478,"ARG_OF_PERICENTER":177.202,"MEAN_ANOMALY":197.4062,"EPHEMERIS_TYPE":0,"CLASSIFICATION_TYPE":"U","NORAD_CAT_ID":30580,"ELEMENT_SET_NO":999,"REV_AT_EPOCH":4035,"BSTAR":-0.0045937781,"MEAN_MOTION_DOT":-1.63e-6,"MEAN_MOTION_DDOT":0},{"OBJECT_NAME":"THEMIS D","OBJECT_ID":"2007-004D","EPOCH":"2026-03-04T18:14:47.882688","MEAN_MOTION":0.87836012,"ECCENTRICITY":0.8358431,"INCLINATION":6.6064,"RA_OF_ASC_NODE":84.7113,"ARG_OF_PERICENTER":215.7397,"MEAN_ANOMALY":68.9811,"EPHEMERIS_TYPE":0,"CLASSIFICATION_TYPE":"U","NORAD_CAT_ID":30797,"ELEMENT_SET_NO":999,"REV_AT_EPOCH":4016,"BSTAR":0,"MEAN_MOTION_DOT":-2.46e-6,"MEAN_MOTION_DDOT":0},{"OBJECT_NAME":"THEMIS E","OBJECT_ID":"2007-004E","EPOCH":"2026-03-04T14:18:03.396960","MEAN_MOTION":0.87837694,"ECCENTRICITY":0.8362422,"INCLINATION":4.125,"RA_OF_ASC_NODE":99.8952,"ARG_OF_PERICENTER":201.4853,"MEAN_ANOMALY":31.3825,"EPHEMERIS_TYPE":0,"CLASSIFICATION_TYPE":"U","NORAD_CAT_ID":30798,"ELEMENT_SET_NO":999,"REV_AT_EPOCH":6499,"BSTAR":0,"MEAN_MOTION_DOT":-2.36e-6,"MEAN_MOTION_DDOT":0},{"OBJECT_NAME":"FGRST (GLAST)","OBJECT_ID":"2008-029A","EPOCH":"2026-03-04T16:54:38.431872","MEAN_MOTION":15.2328444,"ECCENTRICITY":0.0008405,"INCLINATION":25.5812,"RA_OF_ASC_NODE":209.6235,"ARG_OF_PERICENTER":169.3273,"MEAN_ANOMALY":190.7444,"EPHEMERIS_TYPE":0,"CLASSIFICATION_TYPE":"U","NORAD_CAT_ID":33053,"ELEMENT_SET_NO":999,"REV_AT_EPOCH":97988,"BSTAR":0.00019977,"MEAN_MOTION_DOT":5.215e-5,"MEAN_MOTION_DDOT":0}]
